XRISM                   
1 57800U 23137A   26084.95078136  .00005309  00000+0  29863-3 0  9992
2 57800  31.0011 178.4698 0007945 202.9439 157.0846 15.11680530140258
ACS3                    
1 59588U 24077B   26084.76659233  .00016317  00000+0  12892-1 0  9996
2 59588  97.1984  22.2655 0071247  39.3486 321.2824 13.90323034 96433
SZ-21 MODULE            
1 66515U 25246C   26084.41173396  .00034230  00000+0  28093-3 0  9992
2 66515  41.4741 106.4894 0001002 208.3621 151.7166 15.69739008 20549
